APRIZESAT 2             
1 28366U 04025A   24359.48658153  .00000489  00000+0  16524-3 0  9990
2 28366  98.0715 186.2536 0107507  79.7821 281.5470 14.37608526 74080
SAUDICOMSAT 1           
1 28369U 04025D   24359.85092040  .00001290  00000+0  31141-3 0  9994
2 28369  98.5572 345.0787 0031548 234.0648 125.7619 14.54638948 85699
SAUDICOMSAT 2           
1 28370U 04025E   24359.94168474  .00001027  00000+0  27619-3 0  9994
2 28370  98.6482 346.3956 0057249  92.3508 268.4241 14.49272920 82039
APRIZESAT 1             
1 28372U 04025G   24359.89560020  .00001092  00000+0  28396-3 0  9998
2 28372  98.6115 345.4580 0044967 356.4546   3.6322 14.51164169 83674
NANOSAT-1               
1 28493U 04049B   24359.85143236  .00003373  00000+0  47501-3 0  9993
2 28493  98.1616 115.4465 0003399 211.8173 148.2832 14.77975625 75713
SAUDICOMSAT 7           
1 31119U 07012C   24359.81830759  .00001957  00000+0  36759-3 0  9993
2 31119  98.3046 314.8079 0058347  86.8842 273.9035 14.64763924943430
SAUDICOMSAT 6           
1 31121U 07012E   24359.86750801  .00001561  00000+0  31467-3 0  9992
2 31121  98.3359 309.2880 0072608 205.3902 154.3724 14.61327825941370
SAUDICOMSAT 5           
1 31124U 07012H   24359.84414004  .00002675  00000+0  48111-3 0  9996
2 31124  98.2749 315.7340 0049329  24.1313 336.2186 14.66698024944480
SAUDICOMSAT 3           
1 31125U 07012J   24359.88054777  .00003153  00000+0  54046-3 0  9994
2 31125  98.2417 316.4373 0039550 318.8038  41.0183 14.68993931945597
SAUDICOMSAT 4           
1 31127U 07012L   24359.82210930  .00001642  00000+0  31890-3 0  9998
2 31127  98.3246 313.3171 0065535 142.6842 217.8938 14.63205099942460
APRIZESAT 4             
1 35684U 09041D   24359.70733940  .00002385  00000+0  30033-3 0  9995
2 35684  98.2119  51.7055 0043221 268.4032  91.2229 14.82391309831397
APRIZESAT 3             
1 35686U 09041F   24359.87805600  .00004148  00000+0  38652-3 0  9992
2 35686  98.1333 119.9336 0066214  46.8274 313.8452 14.93181491835800
AISSAT 1                
1 36797U 10035C   24359.91670384  .00006203  00000+0  59484-3 0  9995
2 36797  98.1576 228.5330 0010807  45.0762 315.1332 14.93461103783618
S-NET D                 
1 43186U 18014G   24359.68634579  .00011081  00000+0  70896-3 0  9990
2 43186  97.5756 258.4962 0011473  77.6062 282.6450 15.08705142377189
S-NET B                 
1 43187U 18014H   24359.68989963  .00010512  00000+0  67297-3 0  9990
2 43187  97.5760 258.4619 0012263  73.5853 286.6722 15.08690050377182
S-NET A                 
1 43188U 18014J   24359.68722965  .00011243  00000+0  71906-3 0  9992
2 43188  97.5769 258.5899 0012124  74.0887 286.1676 15.08708667377189
S-NET C                 
1 43189U 18014K   24359.69196537  .00010369  00000+0  66362-3 0  9992
2 43189  97.5783 258.5792 0013735  67.8390 292.4295 15.08687414375738
SALSAT                  
1 46495U 20068K   24359.88595501  .00014074  00000+0  68470-3 0  9991
2 46495  97.8414 324.9471 0013772  27.1099 333.0850 15.18437057233192
OOV-CUBE (TUBSAT-30)    
1 60240U 24128F   24359.81537829  .00006608  00000+0  56048-3 0  9990
2 60240  61.9977 300.8626 0030924  12.5440 347.6412 14.98498789 25159
